[{"OBJECT_NAME":"TIANYI C","OBJECT_ID":"2025-103C","EPOCH":"2026-03-09T22:37:19.466688","MEAN_MOTION":15.19353753,"ECCENTRICITY":0.00043402,"INCLINATION":97.3825,"RA_OF_ASC_NODE":142.8102,"ARG_OF_PERICENTER":135.1968,"MEAN_ANOMALY":224.9618,"EPHEMERIS_TYPE":0,"CLASSIFICATION_TYPE":"U","NORAD_CAT_ID":64050,"ELEMENT_SET_NO":999,"REV_AT_EPOCH":4499,"BSTAR":0.00019408106,"MEAN_MOTION_DOT":4.036e-5,"MEAN_MOTION_DDOT":0},{"OBJECT_NAME":"CZ-2C R\/B","OBJECT_ID":"2024-203E","EPOCH":"2026-03-09T21:58:29.775360","MEAN_MOTION":15.29569733,"ECCENTRICITY":0.00782655,"INCLINATION":97.3142,"RA_OF_ASC_NODE":134.7565,"ARG_OF_PERICENTER":232.0261,"MEAN_ANOMALY":127.3893,"EPHEMERIS_TYPE":0,"CLASSIFICATION_TYPE":"U","NORAD_CAT_ID":61873,"ELEMENT_SET_NO":999,"REV_AT_EPOCH":7395,"BSTAR":0.00041889655,"MEAN_MOTION_DOT":0.00013106,"MEAN_MOTION_DDOT":0}]
